{
 "generated_at": "2026-07-17T07:16:58Z",
 "sources": [
  {
   "name": "CelesTrak",
   "url": "https://celestrak.org/NORAD/elements/",
   "license": "frei verfügbar; Attribution. Ursprünglich USSPACECOM/Space-Track."
  },
  {
   "name": "GCAT (J. McDowell, planet4589.org)",
   "url": "https://planet4589.org/space/gcat/",
   "license": "CC-BY 4.0"
  }
 ],
 "satellites": [
  {
   "norad": 39419,
   "name": "DUBAISAT-2",
   "intl": "2013-066D",
   "group": "resource",
   "gcat": {
    "class": "C",
    "category": "IMG",
    "owner": "EIAST",
    "state": "UAE"
   },
   "omm": {
    "OBJECT_NAME": "DUBAISAT-2",
    "OBJECT_ID": "2013-066D",
    "EPOCH": "2026-07-16T19:39:20.958912",
    "MEAN_MOTION": 15.10381137,
    "ECCENTRICITY": 0.0009231,
    "INCLINATION": 97.4577,
    "RA_OF_ASC_NODE": 187.1925,
    "ARG_OF_PERICENTER": 297.1625,
    "MEAN_ANOMALY": 62.8663,
    "EPHEMERIS_TYPE": 0,
    "CLASSIFICATION_TYPE": "U",
    "NORAD_CAT_ID": 39419,
    "ELEMENT_SET_NO": 999,
    "REV_AT_EPOCH": 69086,
    "BSTAR": 0.000097792,
    "MEAN_MOTION_DOT": 0.00001544,
    "MEAN_MOTION_DDOT": 0
   }
  },
  {
   "norad": 41105,
   "name": "ELEKTRO-L 2",
   "intl": "2015-074A",
   "group": "weather",
   "gcat": {
    "class": "C",
    "category": "MET",
    "owner": "RGMS/NPOLO",
    "state": "RU"
   },
   "omm": {
    "OBJECT_NAME": "ELEKTRO-L 2",
    "OBJECT_ID": "2015-074A",
    "EPOCH": "2026-07-16T20:05:49.404768",
    "MEAN_MOTION": 1.00272116,
    "ECCENTRICITY": 0.0001006,
    "INCLINATION": 6.7666,
    "RA_OF_ASC_NODE": 70.1551,
    "ARG_OF_PERICENTER": 214.4188,
    "MEAN_ANOMALY": 297.0458,
    "EPHEMERIS_TYPE": 0,
    "CLASSIFICATION_TYPE": "U",
    "NORAD_CAT_ID": 41105,
    "ELEMENT_SET_NO": 999,
    "REV_AT_EPOCH": 3880,
    "BSTAR": 0,
    "MEAN_MOTION_DOT": -0.00000131,
    "MEAN_MOTION_DDOT": 0
   }
  },
  {
   "norad": 51656,
   "name": "EOS-4",
   "intl": "2022-013A",
   "group": "sar",
   "gcat": {
    "class": "C",
    "category": "IMG-R",
    "owner": "ISRO",
    "state": "IN"
   },
   "omm": {
    "OBJECT_NAME": "EOS-4",
    "OBJECT_ID": "2022-013A",
    "EPOCH": "2026-07-16T20:46:22.262016",
    "MEAN_MOTION": 15.12725234,
    "ECCENTRICITY": 0.0002096,
    "INCLINATION": 97.5112,
    "RA_OF_ASC_NODE": 204.0613,
    "ARG_OF_PERICENTER": 89.6781,
    "MEAN_ANOMALY": 270.469,
    "EPHEMERIS_TYPE": 0,
    "CLASSIFICATION_TYPE": "U",
    "NORAD_CAT_ID": 51656,
    "ELEMENT_SET_NO": 999,
    "REV_AT_EPOCH": 24397,
    "BSTAR": 0.000048346,
    "MEAN_MOTION_DOT": 0.00000783,
    "MEAN_MOTION_DDOT": 0
   }
  },
  {
   "norad": 36411,
   "name": "EWS-G2 (GOES 15)",
   "intl": "2010-008A",
   "group": "weather",
   "gcat": {
    "class": "C",
    "category": "MET",
    "owner": "NOAA",
    "state": "US"
   },
   "omm": {
    "OBJECT_NAME": "EWS-G2 (GOES 15)",
    "OBJECT_ID": "2010-008A",
    "EPOCH": "2026-07-16T20:27:56.591712",
    "MEAN_MOTION": 1.0026869,
    "ECCENTRICITY": 0.0005292,
    "INCLINATION": 1.3575,
    "RA_OF_ASC_NODE": 82.4387,
    "ARG_OF_PERICENTER": 53.9163,
    "MEAN_ANOMALY": 168.6,
    "EPHEMERIS_TYPE": 0,
    "CLASSIFICATION_TYPE": "U",
    "NORAD_CAT_ID": 36411,
    "ELEMENT_SET_NO": 999,
    "REV_AT_EPOCH": 5993,
    "BSTAR": 0,
    "MEAN_MOTION_DOT": 1.2e-7,
    "MEAN_MOTION_DDOT": 0
   }
  },
  {
   "norad": 35491,
   "name": "EWS-G3 (GOES 14)",
   "intl": "2009-033A",
   "group": "weather",
   "gcat": {
    "class": "C",
    "category": "MET",
    "owner": "NOAA",
    "state": "US"
   },
   "omm": {
    "OBJECT_NAME": "EWS-G3 (GOES 14)",
    "OBJECT_ID": "2009-033A",
    "EPOCH": "2026-07-16T19:02:34.855872",
    "MEAN_MOTION": 1.00097372,
    "ECCENTRICITY": 0.0001976,
    "INCLINATION": 1.7642,
    "RA_OF_ASC_NODE": 82.6722,
    "ARG_OF_PERICENTER": 40.0506,
    "MEAN_ANOMALY": 221.6138,
    "EPHEMERIS_TYPE": 0,
    "CLASSIFICATION_TYPE": "U",
    "NORAD_CAT_ID": 35491,
    "ELEMENT_SET_NO": 999,
    "REV_AT_EPOCH": 688,
    "BSTAR": 0,
    "MEAN_MOTION_DOT": -0.0000037,
    "MEAN_MOTION_DDOT": 0
   }
  },
  {
   "norad": 38709,
   "name": "EXACTVIEW-1 (ADS-1B)",
   "intl": "2012-039C",
   "group": "resource",
   "gcat": {
    "class": "B",
    "category": "COM",
    "owner": "EXEA",
    "state": "CA"
   },
   "omm": {
    "OBJECT_NAME": "EXACTVIEW-1 (ADS-1B)",
    "OBJECT_ID": "2012-039C",
    "EPOCH": "2026-07-16T19:14:11.275296",
    "MEAN_MOTION": 14.24992457,
    "ECCENTRICITY": 0.0011956,
    "INCLINATION": 98.9807,
    "RA_OF_ASC_NODE": 315.8646,
    "ARG_OF_PERICENTER": 87.4053,
    "MEAN_ANOMALY": 272.8494,
    "EPHEMERIS_TYPE": 0,
    "CLASSIFICATION_TYPE": "U",
    "NORAD_CAT_ID": 38709,
    "ELEMENT_SET_NO": 999,
    "REV_AT_EPOCH": 72692,
    "BSTAR": 0.000033987,
    "MEAN_MOTION_DOT": 3.3e-7,
    "MEAN_MOTION_DDOT": 0
   }
  },
  {
   "norad": 40367,
   "name": "FENGYUN 2G",
   "intl": "2014-090A",
   "group": "weather",
   "gcat": {
    "class": "C",
    "category": "MET",
    "owner": "NSMC",
    "state": "CN"
   },
   "omm": {
    "OBJECT_NAME": "FENGYUN 2G",
    "OBJECT_ID": "2014-090A",
    "EPOCH": "2026-07-16T20:02:21.637824",
    "MEAN_MOTION": 1.00280173,
    "ECCENTRICITY": 0.000419,
    "INCLINATION": 5.7114,
    "RA_OF_ASC_NODE": 72.4541,
    "ARG_OF_PERICENTER": 172.9611,
    "MEAN_ANOMALY": 89.1999,
    "EPHEMERIS_TYPE": 0,
    "CLASSIFICATION_TYPE": "U",
    "NORAD_CAT_ID": 40367,
    "ELEMENT_SET_NO": 999,
    "REV_AT_EPOCH": 4229,
    "BSTAR": 0,
    "MEAN_MOTION_DOT": -0.00000315,
    "MEAN_MOTION_DDOT": 0
   }
  },
  {
   "norad": 43491,
   "name": "FENGYUN 2H",
   "intl": "2018-050A",
   "group": "weather",
   "gcat": {
    "class": "C",
    "category": "MET",
    "owner": "NSMC",
    "state": "CN"
   },
   "omm": {
    "OBJECT_NAME": "FENGYUN 2H",
    "OBJECT_ID": "2018-050A",
    "EPOCH": "2026-07-16T20:32:26.162304",
    "MEAN_MOTION": 1.00266973,
    "ECCENTRICITY": 0.0002294,
    "INCLINATION": 3.1055,
    "RA_OF_ASC_NODE": 78.7204,
    "ARG_OF_PERICENTER": 133.9095,
    "MEAN_ANOMALY": 109.2651,
    "EPHEMERIS_TYPE": 0,
    "CLASSIFICATION_TYPE": "U",
    "NORAD_CAT_ID": 43491,
    "ELEMENT_SET_NO": 999,
    "REV_AT_EPOCH": 2973,
    "BSTAR": 0,
    "MEAN_MOTION_DOT": -0.00000138,
    "MEAN_MOTION_DDOT": 0
   }
  },
  {
   "norad": 32958,
   "name": "FENGYUN 3A",
   "intl": "2008-026A",
   "group": "weather",
   "gcat": {
    "class": null,
    "category": null,
    "owner": null,
    "state": null
   },
   "omm": {
    "OBJECT_NAME": "FENGYUN 3A",
    "OBJECT_ID": "2008-026A",
    "EPOCH": "2026-07-16T10:32:01.107744",
    "MEAN_MOTION": 14.19576612,
    "ECCENTRICITY": 0.0009637,
    "INCLINATION": 98.6886,
    "RA_OF_ASC_NODE": 137.7257,
    "ARG_OF_PERICENTER": 48.7192,
    "MEAN_ANOMALY": 311.4813,
    "EPHEMERIS_TYPE": 0,
    "CLASSIFICATION_TYPE": "U",
    "NORAD_CAT_ID": 32958,
    "ELEMENT_SET_NO": 999,
    "REV_AT_EPOCH": 93955,
    "BSTAR": 0.000031374,
    "MEAN_MOTION_DOT": 2.3e-7,
    "MEAN_MOTION_DDOT": 0
   }
  },
  {
   "norad": 37214,
   "name": "FENGYUN 3B",
   "intl": "2010-059A",
   "group": "weather",
   "gcat": {
    "class": null,
    "category": null,
    "owner": null,
    "state": null
   },
   "omm": {
    "OBJECT_NAME": "FENGYUN 3B",
    "OBJECT_ID": "2010-059A",
    "EPOCH": "2026-07-16T20:57:54.257760",
    "MEAN_MOTION": 14.14845357,
    "ECCENTRICITY": 0.0023184,
    "INCLINATION": 98.9603,
    "RA_OF_ASC_NODE": 244.0115,
    "ARG_OF_PERICENTER": 101.958,
    "MEAN_ANOMALY": 7.2017,
    "EPHEMERIS_TYPE": 0,
    "CLASSIFICATION_TYPE": "U",
    "NORAD_CAT_ID": 37214,
    "ELEMENT_SET_NO": 999,
    "REV_AT_EPOCH": 81162,
    "BSTAR": -0.00016656,
    "MEAN_MOTION_DOT": -0.00000367,
    "MEAN_MOTION_DDOT": 0
   }
  }
 ]
}
